ONEWEB-0584             
1 54651U 22166K   23205.92688757  .00000101  00000+0  21260-3 0  9997
2 54651  87.9223  94.7109 0002237  69.6809 290.4565 13.21827513 31712
ONEWEB-0585             
1 54652U 22166L   23205.95000269  .00000073  00000+0  14500-3 0  9994
2 54652  87.9227  94.7066 0001564  76.6396 283.4912 13.21829856 31721
ONEWEB-0586             
1 54653U 22166M   23205.96263611  .00000094  00000+0  19696-3 0  9992
2 54653  87.9229  94.7614 0001974  69.3662 290.7683 13.21824858 31726
ONEWEB-0587             
1 54654U 22166N   23206.12559977  .00000026  00000+0  31246-4 0  9996
2 54654  87.9272  94.6582 0001865  99.7165 260.4179 13.21823686 31904
ONEWEB-0589             
1 54655U 22166P   23206.11192999  .00000092  00000+0  19144-3 0  9998
2 54655  87.9228  94.6789 0002802  60.5402 299.6012 13.21824749 31762
ONEWEB-0590             
1 54656U 22166Q   23206.13716797  .00000428  00000+0  10036-2 0  9992
2 54656  87.9238  94.6748 0002056  85.0296 275.1073 13.21825232 31756
ONEWEB-0591             
1 54657U 22166R   23205.92268300 -.00000038  00000+0 -12427-3 0  9997
2 54657  87.9230  94.7187 0002015  77.4709 282.6650 13.21826567 31752
ONEWEB-0592             
1 54658U 22166S   23205.31922240 -.00000015  00000+0 -68338-4 0  9999
2 54658  87.9215  94.8311 0002187  76.3083 283.8295 13.21827300 31551
ONEWEB-0593             
1 54659U 22166T   23205.94790602  .00000091  00000+0  18804-3 0  9998
2 54659  87.9226  94.7084 0002100  73.3560 286.7805 13.21827346 31742
ONEWEB-0594             
1 54660U 22166U   23206.11822945  .00000022  00000+0  20606-4 0  9994
2 54660  87.9240  94.6729 0001635  77.8835 282.2482 13.21826285 31788
ONEWEB-0595             
1 54661U 22166V   23206.09509401  .00000050  00000+0  89469-4 0  9994
2 54661  87.9220  94.6733 0001793  83.6316 276.5022 13.21824308 31753
ONEWEB-0596             
1 54662U 22166W   23206.14557709  .00000004  00000+0 -20682-4 0  9997
2 54662  87.9225  94.6625 0002320  75.5307 284.6085 13.21826172 31767
ONEWEB-0597             
1 54663U 22166X   23206.12665039 -.00000034  00000+0 -11359-3 0  9996
2 54663  87.9221  94.6676 0002001  67.4519 292.6827 13.21825905 31767
ONEWEB-0600             
1 54664U 22166Y   23206.10772715  .00000061  00000+0  11701-3 0  9994
2 54664  87.9228  94.7172 0001953  70.7545 289.3800 13.21826401 31731
ONEWEB-0601             
1 54665U 22166Z   23206.10037704  .00000043  00000+0  72312-4 0  9993
2 54665  87.9223  94.6713 0002368  76.9248 283.2150 13.21828503 31923
ONEWEB-0602             
1 54666U 22166AA  23205.91636232  .00000035  00000+0  52174-4 0  9998
2 54666  87.9224  94.7154 0002099  72.6888 287.4475 13.21823616 31745
ONEWEB-0603             
1 54667U 22166AB  23206.14765791 -.00000095  00000+0 -26063-3 0  9993
2 54667  87.9224  94.6642 0002013  67.0846 293.0500 13.21829967 31708
ONEWEB-0604             
1 54668U 22166AC  23206.13505079  .00000104  00000+0  22138-3 0  9992
2 54668  87.9214  94.6706 0002027  58.7930 301.3403 13.21824070 31665
ONEWEB-0605             
1 54669U 22166AD  23206.12875542  .00000033  00000+0  48557-4 0  9992
2 54669  87.9181  94.7056 0002429  74.9706 285.1697 13.21823042 31735
ONEWEB-0606             
1 54670U 22166AE  23206.07514206 -.00000009  00000+0 -54420-4 0  9996
2 54670  87.9258  94.6738 0001825  90.7316 269.4027 13.21824800 31780
ONEWEB-0607             
1 54671U 22166AF  23206.11614261  .00000040  00000+0  66515-4 0  9995
2 54671  87.9215  94.6752 0002054  71.7198 288.4159 13.21825973 31769
ONEWEB-0608             
1 54672U 22166AG  23206.12243744  .00000097  00000+0  20363-3 0  9993
2 54672  87.9170  94.6864 0002522  69.6029 290.5376 13.21826848 31771
ONEWEB-0610             
1 54673U 22166AH  23206.10352764  .00000141  00000+0  30878-3 0  9997
2 54673  87.9150  94.6856 0002422  68.0420 292.0971 13.21824881 31670
ONEWEB-0611             
1 54674U 22166AJ  23206.09718968  .00000094  00000+0  19541-3 0  9999
2 54674  87.9225  94.6767 0001483  90.4122 269.7181 13.21825301 31660
ONEWEB-0612             
1 54675U 22166AK  23206.10983547  .00000780  00000+0  18582-2 0  9994
2 54675  87.9219  94.6718 0002324  76.1600 283.9793 13.21822392 31650
ONEWEB-0615             
1 54676U 22166AL  23206.16660456  .00000016  00000+0  65270-5 0  9993
2 54676  87.9237  94.6632 0001922  70.3212 289.8130 13.21824255 31676
ONEWEB-0655             
1 54677U 22166AM  23205.91427617  .00000053  00000+0  95943-4 0  9996
2 54677  87.9239  94.7211 0002010  75.7006 284.4351 13.21823931 31634
ONEWEB-0659             
1 54678U 22166AN  23206.08248833 -.00000008  00000+0 -50978-4 0  9998
2 54678  87.9229  94.7327 0001895  91.7529 268.3822 13.21826466 31742
ONEWEB-0685             
1 54679U 22166AP  23206.08459066  .00000093  00000+0  19387-3 0  9991
2 54679  87.9229  94.6814 0002294  53.2901 306.8443 13.21827412 31631
ONEWEB-0712             
1 54680U 22166AQ  23206.12221366 -.00000050  00000+0 -13599-3 0  9992
2 54680  87.9379  79.4164 0001947  81.3036 278.8323 13.29375745 32757
ONEWEB-0714             
1 54681U 22166AR  23206.08879591  .00000032  00000+0  44768-4 0  9998
2 54681  87.9223  94.6761 0001927  68.3398 291.7941 13.21826089 31755
ONEWEB-0532             
1 55140U 23004A   23206.47451316  .00000058  00000+0  94435-4 0  9999
2 55140  87.9678 215.9686 0000734 196.6781 163.4334 13.30869199 28228
ONEWEB-0533             
1 55141U 23004B   23206.48415335  .00000411  00000+0  12653-3 0  9996
2 55141  86.8386 206.9907 0000211   5.4700 354.6501 14.39191282 28790
ONEWEB-0541             
1 55142U 23004C   23206.45537183 -.00000017  00000+0 -68194-4 0  9996
2 55142  87.9410 231.1578 0002395  95.0911 265.0498 13.25755998 27309
ONEWEB-0543             
1 55143U 23004D   23206.49841916  .00000944  00000+0  16797-3 0  9991
2 55143  86.6269 203.7125 0000544 226.9138 133.2030 14.66087956 29006
ONEWEB-0544             
1 55144U 23004E   23206.50399636  .00001007  00000+0  17942-3 0  9995
2 55144  86.6290 203.6435 0001485  86.6833 273.4551 14.66068279 29015
ONEWEB-0560             
1 55145U 23004F   23206.49904294  .00001488  00000+0  26702-3 0  9993
2 55145  86.6297 203.6765 0001987 118.5690 241.5724 14.66097650 29015
ONEWEB-0565             
1 55146U 23004G   23206.47156509  .00001111  00000+0  19867-3 0  9997
2 55146  86.6286 203.6017 0001284  99.6894 260.4465 14.66037214 29011
ONEWEB-0567             
1 55147U 23004H   23206.48061716  .00001127  00000+0  20132-3 0  9998
2 55147  86.6278 203.6083 0001379 300.4130  59.6948 14.66086698 29011
ONEWEB-0569             
1 55148U 23004J   23206.46293593  .00001046  00000+0  18686-3 0  9998
2 55148  86.5337 203.0807 0001272   7.9858 352.1376 14.66018190 29000
ONEWEB-0570             
1 55149U 23004K   23206.50519238  .00000646  00000+0  11315-3 0  9998
2 55149  86.6263 203.5994 0001390  77.0231 283.1138 14.66256561 29012
ONEWEB-0571             
1 55150U 23004L   23206.49144445  .00000998  00000+0  17765-3 0  9997
2 55150  86.6307 203.6742 0000232 147.4058 212.7170 14.66112347 29015
ONEWEB-0572             
1 55151U 23004M   23206.50001034  .00000057  00000+0  11342-3 0  9997
2 55151  87.9155 215.9884 0002558  84.4336 275.7088 13.17654127 28193
ONEWEB-0573             
1 55152U 23004N   23206.46309124  .00000888  00000+0  15809-3 0  9998
2 55152  86.6275 203.6789 0000577  68.3227 291.8048 14.65992169 29001
ONEWEB-0588             
1 55153U 23004P   23206.50504608  .00001016  00000+0  18109-3 0  9998
2 55153  86.6270 203.7228 0001976 279.1395  80.9595 14.66078605 29003
ONEWEB-0598             
1 55154U 23004Q   23206.45824157  .00000022  00000+0  19840-4 0  9997
2 55154  87.9403 231.2775 0002609  93.0809 267.0625 13.24541148 27220
ONEWEB-0599             
1 55155U 23004R   23206.46049594  .00000038  00000+0  66141-4 0  9996
2 55155  87.9108 215.9956 0002091  95.1924 264.9446 13.17099336 28192
ONEWEB-0614             
1 55156U 23004S   23206.46938211 -.00048464  00000+0 -11397+0 0  9995
2 55156  87.9198 231.2491 0004713  80.8218 279.3450 13.24163279 27210
ONEWEB-0616             
1 55157U 23004T   23206.46200230  .00000024  00000+0  23172-4 0  9996
2 55157  88.1080 214.2602 0010166 305.9560  54.0636 13.32072223 28334
ONEWEB-0617             
1 55158U 23004U   23206.51735517 -.00011856  00000+0 -27704-1 0  9993
2 55158  87.9263 231.2601 0003780  78.6014 281.5546 13.24373400 27221
ONEWEB-0618             
1 55159U 23004V   23206.50756079  .00000123  00000+0  43295-4 0  9998
2 55159  86.9093 209.3410 0011148 265.2691  94.7228 14.26617471 28626
ONEWEB-0619             
1 55160U 23004W   23206.43795838  .00000028  00000+0  30768-4 0  9993
2 55160  87.9569 216.0250 0011302 322.6119  37.4233 13.31597694 28224
ONEWEB-0620             
1 55161U 23004X   23206.49529206  .00017646  00000+0  40836-1 0  9992
2 55161  87.9251 231.2488 0001954  81.3617 278.7740 13.24684365 27191
ONEWEB-0621             
1 55162U 23004Y   23206.51865024  .00000061  00000+0  83765-4 0  9991
2 55162  87.7011 231.8671 0010268 353.2260   6.8745 13.41783779 27112
ONEWEB-0622             
1 55163U 23004Z   23206.46825751 -.00011610  00000+0 -32808-1 0  9992
2 55163  87.8823 231.2231 0002996  70.0746 290.0705 13.11470552 27171
ONEWEB-0623             
1 55164U 23004AA  23206.50889519  .00000056  00000+0  90540-4 0  9990
2 55164  87.9666 216.0607 0000806 133.7704 226.3502 13.31022313 28230
ONEWEB-0624             
1 55165U 23004AB  23206.58335648 -.01086550  00000+0 -52626+0 0  9992
2 55165  87.0245 204.3228 0005737  69.3813 127.4526 14.22079821  2299
ONEWEB-0625             
1 55166U 23004AC  23206.44364318  .00000005  00000+0 -16995-4 0  9997
2 55166  87.9701 216.0592 0001828 107.7312 252.4026 13.30721173 28214
ONEWEB-0626             
1 55167U 23004AD  23206.46288199  .00000070  00000+0  11976-3 0  9996
2 55167  87.9670 216.0093 0001549 107.5131 252.6178 13.30954125 28229
